{"type": "FeatureCollection", "features": [ {"type": "Feature", "properties": {"norad_id": 67081, "name": "STARLINK-35864", "group": "last-30-days", "lat": 19.796628530873008, "lon": 22.066455990805533, "alt_km": 346.932852081939, "timestamp": "2025-12-26T22:28:04.501253+00:00", "meta": {"OBJECT_NAME": "STARLINK-35864", "OBJECT_ID": "2025-298G", "EPOCH": "2025-12-26T18:00:02.998944", "MEAN_MOTION": 15.75108079, "ECCENTRICITY": 0.0003574, "INCLINATION": 69.9986, "RA_OF_ASC_NODE": 210.1275, "ARG_OF_PERICENTER": 271.3107, "MEAN_ANOMALY": 272.637, "EPHEMERIS_TYPE": 0, "CLASSIFICATION_TYPE": "U", "NORAD_CAT_ID": 67081, "ELEMENT_SET_NO": 999, "REV_AT_EPOCH": 322, "BSTAR": -0.01332, "MEAN_MOTION_DOT": -0.01758114, "MEAN_MOTION_DDOT": 0}, "tle": {"line1": "1 67081U 25298G   25360.75003471 -.01758114  00000+0 -13320-1 0  9999", "line2": "2 67081  69.9986 210.1275 0003574 271.3107 272.6370 15.75108079  3226"}}, "geometry": {"type": "Point", "coordinates": [22.066455990805533, 19.796628530873008]}}, {"type": "Feature", "properties": {"norad_id": 67082, "name": "STARLINK-36035", "group": "last-30-days", "lat": 17.900557649981227, "lon": 22.841899337276192, "alt_km": 347.16144826992695, "timestamp": "2025-12-26T22:28:04.501263+00:00", "meta": {"OBJECT_NAME": "STARLINK-36035", "OBJECT_ID": "2025-298H", "EPOCH": "2025-12-26T18:00:02.998944", "MEAN_MOTION": 15.75097159, "ECCENTRICITY": 0.0003503, "INCLINATION": 69.9987, "RA_OF_ASC_NODE": 210.1256, "ARG_OF_PERICENTER": 271.2875, "MEAN_ANOMALY": 274.6983, "EPHEMERIS_TYPE": 0, "CLASSIFICATION_TYPE": "U", "NORAD_CAT_ID": 67082, "ELEMENT_SET_NO": 999, "REV_AT_EPOCH": 322, "BSTAR": -0.013276, "MEAN_MOTION_DOT": -0.01752174, "MEAN_MOTION_DDOT": 0}, "tle": {"line1": "1 67082U 25298H   25360.75003471 -.01752174  00000+0 -13276-1 0  9990", "line2": "2 67082  69.9987 210.1256 0003503 271.2875 274.6983 15.75097159  3228"}}, "geometry": {"type": "Point", "coordinates": [22.841899337276192, 17.900557649981227]}}, {"type": "Feature", "properties": {"norad_id": 67083, "name": "STARLINK-36170", "group": "last-30-days", "lat": 15.973498388737728, "lon": 23.610782358392573, "alt_km": 347.3277157882558, "timestamp": "2025-12-26T22:28:04.501273+00:00", "meta": {"OBJECT_NAME": "STARLINK-36170", "OBJECT_ID": "2025-298J", "EPOCH": "2025-12-26T18:00:02.998944", "MEAN_MOTION": 15.75089152, "ECCENTRICITY": 0.0003421, "INCLINATION": 69.9983, "RA_OF_ASC_NODE": 210.1227, "ARG_OF_PERICENTER": 269.7274, "MEAN_ANOMALY": 278.3253, "EPHEMERIS_TYPE": 0, "CLASSIFICATION_TYPE": "U", "NORAD_CAT_ID": 67083, "ELEMENT_SET_NO": 999, "REV_AT_EPOCH": 322, "BSTAR": -0.013267, "MEAN_MOTION_DOT": -0.01750569, "MEAN_MOTION_DDOT": 0}, "tle": {"line1": "1 67083U 25298J   25360.75003471 -.01750569  00000+0 -13267-1 0  9997", "line2": "2 67083  69.9983 210.1227 0003421 269.7274 278.3253 15.75089152  3222"}}, "geometry": {"type": "Point", "coordinates": [23.610782358392573, 15.973498388737728]}}, {"type": "Feature", "properties": {"norad_id": 67084, "name": "STARLINK-36166", "group": "last-30-days", "lat": 14.120553994893783, "lon": 24.33557712918726, "alt_km": 347.596898950339, "timestamp": "2025-12-26T22:28:04.501289+00:00", "meta": {"OBJECT_NAME": "STARLINK-36166", "OBJECT_ID": "2025-298K", "EPOCH": "2025-12-26T18:00:02.998944", "MEAN_MOTION": 15.75087641, "ECCENTRICITY": 0.0003466, "INCLINATION": 69.9985, "RA_OF_ASC_NODE": 210.1201, "ARG_OF_PERICENTER": 270.7834, "MEAN_ANOMALY": 279.2514, "EPHEMERIS_TYPE": 0, "CLASSIFICATION_TYPE": "U", "NORAD_CAT_ID": 67084, "ELEMENT_SET_NO": 999, "REV_AT_EPOCH": 317, "BSTAR": -0.013285, "MEAN_MOTION_DOT": -0.01752625, "MEAN_MOTION_DDOT": 0}, "tle": {"line1": "1 67084U 25298K   25360.75003471 -.01752625  00000+0 -13285-1 0  9993", "line2": "2 67084  69.9985 210.1201 0003466 270.7834 279.2514 15.75087641  3175"}}, "geometry": {"type": "Point", "coordinates": [24.33557712918726, 14.120553994893783]}}, {"type": "Feature", "properties": {"norad_id": 67085, "name": "STARLINK-35794", "group": "last-30-days", "lat": 12.285049725228623, "lon": 25.04145575024881, "alt_km": 347.77131787135113, "timestamp": "2025-12-26T22:28:04.501300+00:00", "meta": {"OBJECT_NAME": "STARLINK-35794", "OBJECT_ID": "2025-298L", "EPOCH": "2025-12-26T18:00:02.998944", "MEAN_MOTION": 15.75084542, "ECCENTRICITY": 0.0003536, "INCLINATION": 69.9985, "RA_OF_ASC_NODE": 210.1179, "ARG_OF_PERICENTER": 269.594, "MEAN_ANOMALY": 282.4033, "EPHEMERIS_TYPE": 0, "CLASSIFICATION_TYPE": "U", "NORAD_CAT_ID": 67085, "ELEMENT_SET_NO": 999, "REV_AT_EPOCH": 322, "BSTAR": -0.013276, "MEAN_MOTION_DOT": -0.01751383, "MEAN_MOTION_DDOT": 0}, "tle": {"line1": "1 67085U 25298L   25360.75003471 -.01751383  00000+0 -13276-1 0  9994", "line2": "2 67085  69.9985 210.1179 0003536 269.5940 282.4033 15.75084542  3227"}}, "geometry": {"type": "Point", "coordinates": [25.04145575024881, 12.285049725228623]}}, {"type": "Feature", "properties": {"norad_id": 67086, "name": "STARLINK-35841", "group": "last-30-days", "lat": 10.291670961665421, "lon": 25.79583986561183, "alt_km": 348.04480355464057, "timestamp": "2025-12-26T22:28:04.501310+00:00", "meta": {"OBJECT_NAME": "STARLINK-35841", "OBJECT_ID": "2025-298M", "EPOCH": "2025-12-26T18:00:02.998944", "MEAN_MOTION": 15.75077309, "ECCENTRICITY": 0.0003452, "INCLINATION": 69.9982, "RA_OF_ASC_NODE": 210.1152, "ARG_OF_PERICENTER": 270.6852, "MEAN_ANOMALY": 283.4424, "EPHEMERIS_TYPE": 0, "CLASSIFICATION_TYPE": "U", "NORAD_CAT_ID": 67086, "ELEMENT_SET_NO": 999, "REV_AT_EPOCH": 322, "BSTAR": -0.013308, "MEAN_MOTION_DOT": -0.01754531, "MEAN_MOTION_DDOT": 0}, "tle": {"line1": "1 67086U 25298M   25360.75003471 -.01754531  00000+0 -13308-1 0  9999", "line2": "2 67086  69.9982 210.1152 0003452 270.6852 283.4424 15.75077309  3226"}}, "geometry": {"type": "Point", "coordinates": [25.79583986561183, 10.291670961665421]}}, {"type": "Feature", "properties": {"norad_id": 67087, "name": "STARLINK-35842", "group": "last-30-days", "lat": 28.58881959487302, "lon": 18.16214079361844, "alt_km": 358.03590064853597, "timestamp": "2025-12-26T22:28:04.501320+00:00", "meta": {"OBJECT_NAME": "STARLINK-35842", "OBJECT_ID": "2025-298N", "EPOCH": "2025-12-26T18:00:02.998944", "MEAN_MOTION": 15.71101119, "ECCENTRICITY": 0.0003335, "INCLINATION": 69.9999, "RA_OF_ASC_NODE": 210.1347, "ARG_OF_PERICENTER": 269.2081, "MEAN_ANOMALY": 268.0456, "EPHEMERIS_TYPE": 0, "CLASSIFICATION_TYPE": "U", "NORAD_CAT_ID": 67087, "ELEMENT_SET_NO": 999, "REV_AT_EPOCH": 322, "BSTAR": -0.022654, "MEAN_MOTION_DOT": -0.02505305, "MEAN_MOTION_DDOT": 0}, "tle": {"line1": "1 67087U 25298N   25360.75003471 -.02505305  00000+0 -22654-1 0  9998", "line2": "2 67087  69.9999 210.1347 0003335 269.2081 268.0456 15.71101119  3226"}}, "geometry": {"type": "Point", "coordinates": [18.16214079361844, 28.58881959487302]}}, {"type": "Feature", "properties": {"norad_id": 67088, "name": "STARLINK-35882", "group": "last-30-days", "lat": 6.615497799447977, "lon": 27.162646271265814, "alt_km": 348.4443417413195, "timestamp": "2025-12-26T22:28:04.501332+00:00", "meta": {"OBJECT_NAME": "STARLINK-35882", "OBJECT_ID": "2025-298P", "EPOCH": "2025-12-26T18:00:02.998944", "MEAN_MOTION": 15.75071402, "ECCENTRICITY": 0.0003484, "INCLINATION": 69.9985, "RA_OF_ASC_NODE": 210.1107, "ARG_OF_PERICENTER": 270.6587, "MEAN_ANOMALY": 287.3896, "EPHEMERIS_TYPE": 0, "CLASSIFICATION_TYPE": "U", "NORAD_CAT_ID": 67088, "ELEMENT_SET_NO": 999, "REV_AT_EPOCH": 322, "BSTAR": -0.013294, "MEAN_MOTION_DOT": -0.01752592, "MEAN_MOTION_DDOT": 0}, "tle": {"line1": "1 67088U 25298P   25360.75003471 -.01752592  00000+0 -13294-1 0  9990", "line2": "2 67088  69.9985 210.1107 0003484 270.6587 287.3896 15.75071402  3225"}}, "geometry": {"type": "Point", "coordinates": [27.162646271265814, 6.615497799447977]}}, {"type": "Feature", "properties": {"norad_id": 67089, "name": "STARLINK-35763", "group": "last-30-days", "lat": 4.638158651574606, "lon": 27.887345779017707, "alt_km": 348.64474191109184, "timestamp": "2025-12-26T22:28:04.501343+00:00", "meta": {"OBJECT_NAME": "STARLINK-35763", "OBJECT_ID": "2025-298Q", "EPOCH": "2025-12-26T18:00:02.998944", "MEAN_MOTION": 15.75064598, "ECCENTRICITY": 0.0003493, "INCLINATION": 69.9983, "RA_OF_ASC_NODE": 210.1076, "ARG_OF_PERICENTER": 270.213, "MEAN_ANOMALY": 289.9454, "EPHEMERIS_TYPE": 0, "CLASSIFICATION_TYPE": "U", "NORAD_CAT_ID": 67089, "ELEMENT_SET_NO": 999, "REV_AT_EPOCH": 322, "BSTAR": -0.013318, "MEAN_MOTION_DOT": -0.01754896, "MEAN_MOTION_DDOT": 0}, "tle": {"line1": "1 67089U 25298Q   25360.75003471 -.01754896  00000+0 -13318-1 0  9997", "line2": "2 67089  69.9983 210.1076 0003493 270.2130 289.9454 15.75064598  3225"}}, "geometry": {"type": "Point", "coordinates": [27.887345779017707, 4.638158651574606]}}, {"type": "Feature", "properties": {"norad_id": 67090, "name": "STARLINK-36060", "group": "last-30-days", "lat": 2.8796607544716797, "lon": 28.528007238616805, "alt_km": 348.8826977063436, "timestamp": "2025-12-26T22:28:04.501353+00:00", "meta": {"OBJECT_NAME": "STARLINK-36060", "OBJECT_ID": "2025-298R", "EPOCH": "2025-12-26T18:00:02.998944", "MEAN_MOTION": 15.75067396, "ECCENTRICITY": 0.000358, "INCLINATION": 69.9982, "RA_OF_ASC_NODE": 210.1047, "ARG_OF_PERICENTER": 271.9352, "MEAN_ANOMALY": 290.0939, "EPHEMERIS_TYPE": 0, "CLASSIFICATION_TYPE": "U", "NORAD_CAT_ID": 67090, "ELEMENT_SET_NO": 999, "REV_AT_EPOCH": 317, "BSTAR": -0.013325, "MEAN_MOTION_DOT": -0.0175599, "MEAN_MOTION_DDOT": 0}, "tle": {"line1": "1 67090U 25298R   25360.75003471 -.01755990  00000+0 -13325-1 0  9993", "line2": "2 67090  69.9982 210.1047 0003580 271.9352 290.0939 15.75067396  3179"}}, "geometry": {"type": "Point", "coordinates": [28.528007238616805, 2.8796607544716797]}}]}